{"type": "FeatureCollection", "features": [{"type": "Feature", "geometry": {"type": "Polygon", "coordinates": [[[175.676355, -41.414018], [175.8104645, -41.3608032], [175.9593208, -41.2465138], [176.1450885, -40.9591407], [176.2286303, -40.9020241], [176.3097096, -40.7169995], [176.4798233, -40.5431971], [176.6211797, -40.4910643], [176.6321111, -40.4507981], [176.6232727, -40.4436186], [176.6221567, -40.4334683], [176.622511, -40.4288341], [176.6229919, -40.4275754], [176.6230664, -40.4268963], [176.6235545, -40.4257509], [176.6682792, -40.2991749], [176.8736047, -40.1207999], [176.8801886, -40.0472797], [177.0158518, -39.7307141], [176.8999615, -39.366983], [177.0488387, -39.1925062], [177.2713679, -39.0983049], [177.4841512, -39.0563296], [177.8942994, -39.0655449], [177.8929579, -39.0086001], [177.8992455, -38.9733757], [177.8960221, -38.9651116], [177.8974689, -38.9635369], [177.8978944, -38.9628388], [177.8979625, -38.9624617], [177.8979598, -38.9621744], [177.8998759, -38.9595471], [177.9017616, -38.9562326], [177.9040274, -38.9489239], [177.903487, -38.9303706], [177.9102594, -38.9130299], [177.9030759, -38.8908908], [177.9206063, -38.8668509], [177.9110084, -38.8329656], [177.9440858, -38.7096012], [178.0468035, -38.6974801], [178.2813232, -38.5392621], [178.3454067, -38.4175078], [178.3118754, -38.2407768], [178.3735063, -38.0944876], [178.3400509, -38.0053529], [178.4105229, -37.8638757], [178.5505013, -37.6925173], [178.369835, -37.6321475], [178.3148928, -37.5562126], [177.9807747, -37.5504494], [177.9459537, -37.6182316], [177.7242108, -37.6844325], [177.5321576, -37.9192291], [177.3922686, -37.9828794], [177.1093731, -38.00203], [176.9297044, -37.9165679], [176.7542408, -37.8844436], [176.2930937, -37.6989869], [176.169512, -37.7214816], [175.949343, -37.5918369], [175.977532, -37.4510434], [175.8774331, -37.2120664], [175.8918475, -37.0655645], [175.8549535, -36.9212405], [175.7496499, -36.7644177], [175.5783579, -36.6800777], [175.5326971, -36.5523905], [175.4026929, -36.4713864], [175.3446077, -36.5535624], [175.4570241, -36.6161956], [175.4268006, -36.8959541], [175.4994883, -36.9741382], [175.5447588, -37.1586586], [175.3400269, -37.2071594], [175.2835651, -36.9888353], [175.0929411, -36.945888], [174.7757859, -36.786718], [174.6944131, -36.4645794], [174.7550617, -36.3871146], [174.7463632, -36.2566357], [174.5899717, -36.0469155], [174.5079976, -36.0294228], [174.4611892, -35.9102113], [174.55596, -35.751101], [174.446086, -35.4670073], [174.2606411, -35.2559072], [174.1014127, -35.3040319], [174.0609829, -35.1781726], [173.8395198, -34.994245], [173.5496364, -34.9325976], [173.2921273, -35.010674], [173.2683385, -34.8838108], [173.1208454, -34.8170685], [173.1164811, -34.7371476], [173.0101958, -34.6172361], [172.9677467, -34.4261118], [172.6575247, -34.4765467], [172.8699428, -34.6509799], [173.0492231, -34.8573143], [173.1758219, -35.0844093], [173.1336289, -35.1773357], [173.1635578, -35.2939803], [173.3760656, -35.5630474], [173.8171182, -36.036379], [173.9702347, -36.2225179], [174.0523423, -36.3957068], [174.1811581, -36.337248], [174.3829863, -36.4057894], [174.4430297, -36.5934717], [174.1750965, -36.4990047], [174.4246838, -36.8282637], [174.5028132, -37.050293], [174.711221, -36.9272433], [174.7435173, -36.9973944], [174.8969193, -37.0611556], [174.6713437, -37.14029], [174.6822385, -37.342086], [174.8376128, -37.7953666], [174.7586409, -37.8622719], [174.8359459, -38.0181015], [174.6906628, -38.1177047], [174.7092863, -38.3228269], [174.6345957, -38.3864918], [174.6150126, -38.7035921], [174.5558023, -38.8606799], [174.4393516, -38.9633259], [174.1999724, -38.9883488], [173.8451291, -39.1542702], [173.7509489, -39.2805946], [173.7787625, -39.384842], [173.9111233, -39.5178066], [174.1983077, -39.5872132], [174.3541834, -39.6603898], [174.5575553, -39.8149544], [174.9273877, -39.8990711], [175.1462142, -40.086222], [175.2254491, -40.3035115], [175.2006405, -40.5293788], [175.0837467, -40.78951], [174.9394921, -40.9997394], [174.8391014, -41.0619141], [174.6595332, -41.3400471], [174.8117292, -41.3424161], [174.9200934, -41.4376984], [175.045213, -41.3731858], [175.158889, -41.404009], [175.2166681, -41.4317703], [175.1953971, -41.5231179], [175.2374098, -41.6075882], [175.3228397, -41.6080705], [175.3838916, -41.5685628], [175.4399002, -41.5670618], [175.5184978, -41.5054521], [175.5847378, -41.4875875], [175.676355, -41.414018]]]}, "properties": {"name": "North Island", "classification": "island"}}, {"type": "Feature", "geometry": {"type": "Polygon", "coordinates": [[[174.0496979, -41.9683752], [174.2753185, -41.7427925], [174.1878185, -41.7163879], [174.1501793, -41.5583699], [174.0651043, -41.5537027], [174.0511902, -41.3889096], [174.2562414, -41.2810398], [174.1245993, -41.2362109], [174.2166604, -41.1153494], [174.1626586, -40.982515], [174.0302806, -41.081369], [173.8698834, -41.0789926], [173.8607084, -40.9876066], [173.5945019, -41.0517251], [173.5937662, -41.0519388], [173.5937256, -41.0520588], [173.593597, -41.0524358], [173.5923949, -41.0534399], [173.590419, -41.0559824], [173.5875153, -41.0632422], [173.5700605, -41.0658576], [173.5463442, -41.0961138], [173.5136866, -41.1048594], [173.3236606, -41.2037682], [173.1631357, -41.3195337], [173.019134, -41.1585153], [173.0169576, -40.99023], [173.0656258, -40.8780695], [172.9926072, -40.7816444], [172.8553189, -40.8390048], [172.7346605, -40.7727163], [172.6513542, -40.654253], [172.6466297, -40.5056585], [172.3696278, -40.6973692], [172.2164485, -40.7755442], [172.109826, -40.8836877], [172.0959156, -41.2561236], [172.0652746, -41.3829142], [171.8457821, -41.6343832], [171.6624786, -41.7396203], [171.4619836, -41.7496604], [171.4530204, -41.8903275], [171.3183795, -42.1545381], [171.3077277, -42.2566352], [171.1580287, -42.5222996], [170.8553763, -42.8346902], [170.5697383, -43.0047121], [170.260119, -43.1079244], [170.1730028, -43.2121554], [169.9281055, -43.3858717], [169.7942682, -43.4210492], [169.593767, -43.5987334], [169.4264432, -43.625062], [169.2095563, -43.7191223], [168.8129443, -43.9672511], [168.3878287, -44.0023954], [168.3255285, -44.0849615], [167.8764291, -44.4336482], [167.782318, -44.5773432], [167.2713238, -44.8704792], [166.9736658, -45.1425981], [167.0077876, -45.3206472], [166.8072742, -45.3116301], [166.6694517, -45.5579541], [166.7307345, -45.7281325], [166.4331211, -45.8417875], [166.4492438, -45.9824151], [166.6985485, -46.0582332], [166.6574721, -46.2022857], [167.1058779, -46.2539341], [167.3429391, -46.2496283], [167.3996635, -46.1549081], [167.5356438, -46.1635704], [167.7108149, -46.2573308], [167.782757, -46.3892031], [168.0919536, -46.3401215], [168.196891, -46.393014], [168.2662288, -46.555843], [168.7889494, -46.5624131], [168.8493277, -46.6600529], [169.2203777, -46.6571045], [169.4976678, -46.5572137], [169.5923957, -46.5667203], [169.7972077, -46.4519045], [169.7834319, -46.3646734], [170.1703001, -46.1534782], [170.2952135, -45.9630126], [170.7391915, -45.8792766], [170.7422019, -45.8016474], [170.6046136, -45.7323838], [170.6617826, -45.6256194], [170.8314497, -45.4734763], [170.8306715, -45.3079435], [170.9187832, -45.1577567], [171.1465743, -44.9427019], [171.1713299, -44.5729426], [171.250836, -44.3691878], [171.4273529, -44.2303357], [171.6338126, -44.1231787], [172.0338895, -43.956294], [172.3878846, -43.8548551], [172.6975004, -43.8273405], [172.8349109, -43.8897882], [172.9975464, -43.8881923], [173.1018034, -43.8308825], [173.1088185, -43.702697], [172.9781127, -43.6325523], [172.7385371, -43.6086878], [172.7098904, -43.3623479], [172.8196702, -43.1333208], [173.0808386, -43.050808], [173.3196353, -42.8815495], [173.5094182, -42.5055944], [173.6746122, -42.415223], [173.7506277, -42.2954469], [173.9376638, -42.1677838], [173.9538928, -42.0623635], [174.0496979, -41.9683752]]]}, "properties": {"name": "South Island", "classification": "island"}}, {"type": "Feature", "properties": {"name": "Hawke's Bay", "classification": "region"}, "geometry": {"type": "Polygon", "coordinates": [[[176.4432953, -40.4073889], [176.3209806, -40.086139], [176.0938314, -39.9955026], [176.1959379, -39.663571], [176.1427264, -39.5846828], [176.0954825, -39.1071362], [176.3035654, -38.9017195], [176.4681052, -38.9414037], [176.5195565, -38.7973756], [176.6959707, -38.8215918], [176.7172831, -38.7245243], [176.8786676, -38.6671347], [176.9914481, -38.6936946], [177.1221708, -38.583921], [177.3075607, -38.6597042], [177.4478181, -38.6358922], [177.4942121, -38.7779743], [177.799025, -38.8943903], [177.8347969, -38.9527795], [177.89793205599977, -38.96263028197481], [177.8978944, -38.9628388], [177.8974689, -38.9635369], [177.8960221, -38.9651116], [177.8992455, -38.9733757], [177.8929579, -39.0086001], [177.8942994, -39.0655449], [177.4841512, -39.0563296], [177.2713679, -39.0983049], [177.0488387, -39.1925062], [176.8999615, -39.366983], [177.0158518, -39.7307141], [176.8801886, -40.0472797], [176.8736047, -40.1207999], [176.6682792, -40.2991749], [176.6235545, -40.4257509], [176.6230664, -40.4268963], [176.623008930684, -40.42742015788586], [176.5897247, -40.4225533], [176.4432953, -40.4073889]]]}}, {"type": "Feature", "properties": {"name": "Marlborough", "classification": "region"}, "geometry": {"type": "Polygon", "coordinates": [[[173.7202102, -41.9607713], [173.4991075, -42.0787367], [173.4644634, -42.1956737], [173.2445247, -42.3031042], [173.1898955, -42.4105464], [173.035789, -42.4834706], [172.8232901, -42.2047071], [172.7216386, -42.1586982], [172.7352988, -42.0578954], [172.8610931, -41.922463], [172.9262352, -41.7577337], [173.0037897, -41.7248033], [173.1687005, -41.5311547], [173.4154193, -41.2891417], [173.5683658, -41.189731], [173.59371020778192, -41.05210392337647], [173.5937256, -41.0520588], [173.5937662, -41.0519388], [173.5945019, -41.0517251], [173.8607084, -40.9876066], [173.8698834, -41.0789926], [174.0302806, -41.081369], [174.1626586, -40.982515], [174.2166604, -41.1153494], [174.1245993, -41.2362109], [174.2562414, -41.2810398], [174.0511902, -41.3889096], [174.0651043, -41.5537027], [174.1501793, -41.5583699], [174.1878185, -41.7163879], [174.2753185, -41.7427925], [174.0496979, -41.9683752], [173.9555049, -41.9126784], [173.7202102, -41.9607713]]]}}, {"type": "Feature", "properties": {"name": "Martinborough", "classification": "region"}, "geometry": {"type": "Polygon", "coordinates": [[[175.324847445168, -41.27968140244233], [175.3938023937149, -41.23069596911934], [175.38684363743954, -41.21880076096291], [175.41847434778214, -41.20309577304972], [175.45959427122753, -41.19881194023973], [175.47098132695092, -41.16881725972062], [175.49059236736338, -41.14547856605746], [175.5785257421159, -41.16214990949175], [175.59244325466665, -41.18072155491046], [175.5538537880486, -41.24401603327855], [175.5127338646032, -41.29061487966229], [175.4083525204725, -41.35380297029804], [175.3710282822682, -41.352853227207966], [175.33623450089132, -41.326254795127554], [175.3412954145461, -41.3105756325047], [175.28878843537737, -41.32672986238551], [175.26917739496494, -41.30297225655939], [175.26917739496494, -41.29156553023378], [175.3046037905487, -41.27207442478356], [175.324847445168, -41.27968140244233]]]}}, {"type": "Feature", "properties": {"name": "Central Otago", "classification": "region"}, "geometry": {"type": "Polygon", "coordinates": [[[168.21792065367003, -44.74529644245763], [168.26886524417935, -44.5178845043771], [168.69494727389346, -44.3988810723581], [168.74589186440275, -44.43526896457444], [168.8894629831108, -44.24315047140791], [169.12102930360763, -44.090333050956474], [169.25070644308585, -44.10696281750801], [169.3201763392349, -44.05705948655923], [169.380383582564, -44.12358790684707], [169.57489929178138, -44.0270972834089], [169.5795306181913, -43.96712741928138], [169.68141979920992, -43.963793983072456], [169.7231017368993, -44.04374482257506], [169.533217354092, -44.20996297156522], [169.57026796537141, -44.253103072661645], [169.5471113333218, -44.465024033538405], [169.64900051434034, -44.465024033538405], [169.65363184075028, -44.60038307367472], [169.73236438971918, -44.583892717718534], [169.77404632740866, -44.639940837454525], [169.84351622355769, -44.67617844460473], [169.89909214047694, -44.636645386538554], [170.11213315533396, -44.94559964738011], [170.33906814942088, -44.916090514986635], [170.44095733043943, -45.14520636167716], [170.34369947583085, -45.23985709019474], [170.2186536627625, -45.233334507457954], [170.01487530072532, -45.49365385534782], [169.9083547932968, -45.503392529497624], [169.9083547932968, -45.53908659086605], [169.81572826509807, -45.56178920330552], [169.74162704253905, -45.73338286459213], [169.67215714639005, -45.71074967849231], [169.55174265973173, -45.81414082618288], [169.44985347871312, -45.79476958066526], [169.4035402146137, -45.7010469347754], [169.2321811374461, -45.68487195277232], [169.17197389411686, -45.65574519618977], [169.17197389411686, -45.45143347013612], [169.2090245053964, -45.41568382421737], [169.07008471309834, -45.27245877353514], [168.89409430952074, -45.46117944326986], [168.77831114927233, -45.44493521893313], [168.6995786003034, -45.340861384659775], [168.6856846210736, -45.24311810080371], [168.4865375854463, -45.331094636609706], [168.30591585545884, -45.331094636609706], [168.30591585545884, -45.2300729353298], [168.22255198007997, -45.15500511620356], [168.3151785082787, -45.02421654412497], [168.2040266744402, -45.00457242762658], [168.12992545188123, -44.94559964738011], [168.1252941254713, -44.86687493553765], [168.21792065367003, -44.74529644245763]]]}}]}
