{"type":"FeatureCollection", "features": [
{"type":"Feature","geometry":{"type":"Polygon","coordinates":[[[19.0262,-31.8766],[19.0267,-31.8428],[19.0863,-31.7945],[19.0947,-31.7502],[19.0656,-31.7063],[19.0705,-31.6241],[19.0905,-31.5978],[19.0854,-31.5269],[19.0197,-31.4993],[19.043,-31.425],[19.0309,-31.3895],[18.9801,-31.3552],[19.013,-31.3057],[18.9664,-31.2845],[18.9445,-31.2373],[18.9476,-31.1129],[18.9035,-31.0418],[18.9118,-30.9789],[18.9845,-30.9458],[18.8754,-30.8871],[18.9605,-30.8661],[18.9519,-30.7447],[18.863,-30.7171],[18.7945,-30.6676],[18.7959,-30.6249],[18.7587,-30.5679],[18.6551,-30.5567],[18.5701,-30.4303],[18.5022,-30.4444],[18.4836,-30.5219],[18.4138,-30.5273],[18.3712,-30.5921],[18.371,-30.6596],[18.2642,-30.8183],[18.2135,-30.8104],[18.1692,-30.8486],[18.0892,-30.7879],[18.0065,-30.7912],[17.9948,-30.8192],[17.9934,-30.9187],[17.8803,-30.9239],[17.8779,-30.9487],[17.9264,-31.0114],[17.8113,-31.0925],[17.8344,-31.1765],[17.7973,-31.2021],[17.8773,-31.2788],[17.8785,-31.3194],[17.9951,-31.4566],[18.1056,-31.568],[18.1155,-31.5978],[18.2228,-31.7443],[18.2336,-31.8207],[18.2801,-31.8982],[18.2678,-31.9484],[18.2903,-32.0067],[18.3139,-32.0836],[18.3103,-32.1726],[18.3422,-32.2657],[18.3142,-32.3165],[18.3345,-32.4429],[18.3241,-32.5348],[18.2794,-32.6332],[18.1615,-32.7587],[18.0604,-32.7835],[18.0153,-32.7404],[17.9577,-32.7181],[17.897,-32.7406],[17.8806,-32.8537],[17.8859,-32.9793],[17.9111,-33.0518],[17.9461,-33.006],[17.9927,-32.9972],[18.0427,-33.0487],[17.9553,-33.1106],[18.051,-33.1841],[18.1065,-33.2407],[18.1562,-33.3206],[18.166,-33.3686],[18.2551,-33.4268],[18.3212,-33.5158],[18.343,-33.5706],[18.3956,-33.6234],[18.438,-33.6926],[18.4498,-33.7818],[18.4887,-33.8519],[18.4803,-33.8964],[18.4401,-33.9204],[18.3983,-33.9009],[18.3698,-33.9746],[18.3106,-34.0433],[18.3569,-34.1104],[18.3183,-34.1459],[18.3628,-34.1844],[18.4022,-34.3097],[18.4532,-34.3367],[18.4754,-34.2304],[18.4264,-34.1772],[18.4691,-34.1091],[18.5974,-34.0776],[18.6947,-34.0721],[18.8134,-34.1013],[18.8681,-34.1605],[18.8197,-34.1853],[18.8528,-34.2381],[18.8458,-34.2696],[18.8119,-34.2988],[18.8318,-34.3817],[18.9113,-34.3577],[18.9646,-34.363],[19.0471,-34.3422],[19.1026,-34.3721],[19.1412,-34.4232],[19.2185,-34.4381],[19.2754,-34.4091],[19.346,-34.4678],[19.3781,-34.5404],[19.3262,-34.6102],[19.4022,-34.6064],[19.4491,-34.6546],[19.5158,-34.6697],[19.596,-34.7467],[19.7247,-34.7672],[19.8722,-34.7659],[19.9892,-34.8334],[20.0467,-34.7883],[20.0798,-34.7365],[20.1629,-34.6975],[20.2326,-34.6896],[20.2588,-34.6383],[20.4072,-34.5634],[20.4277,-34.5264],[20.5334,-34.47],[20.6212,-34.4519],[20.6911,-34.4503],[20.8484,-34.4723],[20.8714,-34.4524],[20.85,-34.4034],[20.9334,-34.366],[21.0012,-34.365],[21.1343,-34.3835],[21.2907,-34.4368],[21.3329,-34.4346],[21.4131,-34.4014],[21.432,-34.3726],[21.5226,-34.3571],[21.5786,-34.3628],[21.6962,-34.395],[21.8355,-34.3752],[21.9041,-34.3444],[21.9309,-34.3042],[21.9322,-34.2451],[22.0103,-34.2111],[22.1122,-34.2038],[22.1259,-34.1149],[22.1595,-34.0841],[22.2345,-34.0582],[22.2982,-34.0512],[22.4327,-34.059],[22.4846,-34.0513],[22.5636,-33.9961],[22.6522,-34.0059],[22.7645,-34.0355],[22.7801,-34.0277],[22.9703,-34.0861],[23.1303,-34.0804],[23.3144,-34.103],[23.3755,-34.0982],[23.3845,-34.0401],[23.4379,-34.0086],[23.5294,-33.9997],[23.5619,-33.9819],[23.647,-33.9806],[23.6346,-33.9521],[23.6552,-33.8874],[23.7033,-33.8641],[23.5619,-33.8289],[23.5179,-33.7856],[23.468,-33.8075],[23.4301,-33.7618],[23.4399,-33.7174],[23.5413,-33.6995],[23.5555,-33.673],[23.6704,-33.6726],[23.675,-33.6259],[23.5962,-33.5725],[23.604,-33.4964],[23.4956,-33.4434],[23.3549,-33.4412],[23.2971,-33.3886],[23.1348,-33.3876],[22.9348,-33.4291],[22.7845,-33.4155],[22.7357,-33.3948],[22.7393,-33.324],[22.7734,-33.3263],[22.8402,-33.2202],[22.8772,-33.1869],[22.8923,-33.1416],[22.9553,-33.0731],[22.9352,-33.013],[22.9693,-32.9934],[22.9488,-32.95],[23.0037,-32.8983],[23.0074,-32.8728],[23.098,-32.8737],[23.1164,-32.858],[23.0894,-32.7992],[23.1493,-32.7667],[23.3786,-32.825],[23.3977,-32.7635],[23.3516,-32.7638],[23.3013,-32.6518],[23.3073,-32.6116],[23.2882,-32.5512],[23.2445,-32.5132],[23.2475,-32.4653],[23.2216,-32.425],[23.3073,-32.3959],[23.3331,-32.3511],[23.4099,-32.3892],[23.449,-32.3233],[23.6651,-32.3442],[23.6489,-32.298],[23.6705,-32.2377],[23.7471,-32.2007],[23.7979,-32.1941],[23.8511,-32.2425],[23.8923,-32.2549],[23.9611,-32.2065],[24.0305,-32.1935],[24.038,-32.1581],[24.1001,-32.164],[24.1355,-32.1231],[24.1097,-32.0843],[24.1409,-32.0117],[24.2224,-31.9556],[24.1642,-31.9024],[24.1054,-31.9069],[24.1525,-31.7886],[24.0709,-31.8071],[24.0285,-31.7302],[23.9631,-31.7067],[23.9487,-31.7733],[23.9159,-31.822],[23.8786,-31.8337],[23.8085,-31.7637],[23.8476,-31.7292],[23.7565,-31.6957],[23.7151,-31.647],[23.6395,-31.6601],[23.5745,-31.6892],[23.4961,-31.7027],[23.4231,-31.6821],[23.4071,-31.7138],[23.3451,-31.7109],[23.3024,-31.7301],[23.2634,-31.7783],[23.2624,-31.8154],[23.2304,-31.8757],[23.1394,-31.9515],[23.0876,-31.9723],[23.0526,-31.9398],[23.0674,-31.8907],[22.9758,-31.8608],[22.902,-31.8758],[22.859,-31.8183],[22.7769,-31.8569],[22.7351,-31.7994],[22.6515,-31.8217],[22.5783,-31.8055],[22.6191,-31.7247],[22.5661,-31.7132],[22.5648,-31.6779],[22.4958,-31.6703],[22.3123,-31.5835],[22.2729,-31.5925],[22.2601,-31.6625],[22.1769,-31.8207],[22.1666,-31.8931],[22.1014,-31.8987],[22.0713,-31.9393],[22.095,-32.0011],[22.0741,-32.0179],[22.12,-32.077],[22.0696,-32.0814],[22.0164,-32.1143],[21.9959,-32.203],[21.9362,-32.2229],[21.9246,-32.262],[21.8551,-32.2755],[21.7806,-32.2509],[21.7359,-32.205],[21.6916,-32.2486],[21.6446,-32.2087],[21.536,-32.2292],[21.5618,-32.3147],[21.5191,-32.337],[21.4756,-32.3315],[21.4084,-32.3688],[21.303,-32.4024],[21.2695,-32.4503],[21.1821,-32.5087],[21.1401,-32.5898],[21.157,-32.6289],[21.0603,-32.6555],[20.9628,-32.6393],[20.8441,-32.6624],[20.7922,-32.735],[20.8303,-32.7846],[20.8324,-32.8174],[20.7986,-32.8947],[20.7442,-32.9129],[20.7312,-32.945],[20.5921,-32.9265],[20.5612,-32.881],[20.4993,-32.9416],[20.4386,-32.9401],[20.38,-32.9019],[20.2999,-32.805],[20.219,-32.7847],[20.1876,-32.7527],[20.1917,-32.6858],[20.1412,-32.6437],[20.1228,-32.557],[20.0968,-32.503],[20.0797,-32.3975],[20.132,-32.4211],[20.1705,-32.3809],[20.1635,-32.351],[20.216,-32.3032],[20.2542,-32.3108],[20.2408,-32.2242],[20.1664,-32.2275],[20.119,-32.207],[20.097,-32.2502],[20.0536,-32.2523],[20.0386,-32.2964],[19.9375,-32.3773],[19.8739,-32.3832],[19.8178,-32.3607],[19.8027,-32.3937],[19.7302,-32.4424],[19.6219,-32.4706],[19.6071,-32.5454],[19.605,-32.6295],[19.5282,-32.6732],[19.4868,-32.5654],[19.4964,-32.4748],[19.4302,-32.3657],[19.4091,-32.2901],[19.4915,-32.2524],[19.5014,-32.1799],[19.4752,-32.1463],[19.5152,-32.1152],[19.3958,-32.0151],[19.363,-32.0428],[19.3233,-31.9848],[19.2648,-31.9657],[19.2897,-31.863],[19.2107,-31.948],[19.1997,-31.9048],[19.1425,-31.9121],[19.0262,-31.8766]]]},"properties":{"name":"Western Cape","classification":"western_cape"}},
{"type":"Feature","geometry":{"type":"Polygon","coordinates":[[[20.3362,-33.4878],[20.3861,-33.4592],[20.3356,-33.4256],[20.368,-33.3663],[20.2092,-33.3798],[20.2512,-33.2915],[20.2356,-33.2624],[20.258,-33.1884],[20.2022,-33.1701],[20.087,-33.1933],[20.0138,-33.2388],[19.972,-33.3168],[19.9085,-33.3627],[19.8306,-33.3794],[19.7545,-33.3726],[19.6687,-33.3819],[19.5807,-33.3645],[19.5379,-33.4264],[19.4732,-33.4617],[19.4053,-33.4805],[19.3786,-33.6191],[19.3113,-33.6071],[19.2395,-33.5588],[19.1854,-33.562],[19.1694,-33.5975],[19.107,-33.5411],[19.102,-33.6068],[19.1475,-33.6561],[19.1488,-33.7022],[19.184,-33.7154],[19.214,-33.8571],[19.2438,-33.8974],[19.2974,-33.8897],[19.3189,-33.9472],[19.4558,-33.9999],[19.5069,-33.9717],[19.5454,-33.9156],[19.5323,-33.8784],[19.5945,-33.8542],[19.6814,-33.7994],[19.6596,-33.7751],[19.7021,-33.7184],[19.6996,-33.6379],[19.6452,-33.6046],[19.6376,-33.5366],[19.6907,-33.5277],[19.7985,-33.5379],[19.8388,-33.5659],[19.9171,-33.5193],[19.9587,-33.5176],[19.9925,-33.5568],[20.1254,-33.5563],[20.1731,-33.5262],[20.2415,-33.538],[20.3362,-33.4878]]]},"properties":{"name":"Worcester","classification":"breede_river"}},
{"type":"Feature","geometry":{"type":"Polygon","coordinates":[[[20.8714,-34.4524],[20.8168,-34.4289],[20.7118,-34.4126],[20.5317,-34.3605],[20.4848,-34.4013],[20.392,-34.4263],[20.3573,-34.3884],[20.2891,-34.4178],[20.2863,-34.3452],[20.2449,-34.2889],[20.1486,-34.2712],[20.0655,-34.2413],[20.0324,-34.2036],[19.94,-34.2396],[19.8804,-34.2201],[19.8454,-34.2804],[19.7409,-34.3126],[19.7052,-34.3501],[19.6411,-34.372],[19.6269,-34.4169],[19.6242,-34.4187],[19.6269,-34.4169],[19.6959,-34.4322],[19.7133,-34.4686],[19.6867,-34.5165],[19.6882,-34.5622],[19.7197,-34.5998],[19.7146,-34.6878],[19.7385,-34.7129],[19.7247,-34.7672],[19.8722,-34.7659],[19.9892,-34.8334],[20.0467,-34.7883],[20.0798,-34.7365],[20.1629,-34.6975],[20.2326,-34.6896],[20.2588,-34.6383],[20.4072,-34.5634],[20.4277,-34.5264],[20.5334,-34.47],[20.6212,-34.4519],[20.6911,-34.4503],[20.8484,-34.4723],[20.8714,-34.4524]]]},"properties":{"name":"Cape Agulhas","classification":"cape_south_coast"}},
{"type":"Feature","geometry":{"type":"Polygon","coordinates":[[[19.0262,-31.8766],[18.982,-31.8557],[18.8755,-31.8524],[18.7409,-31.8789],[18.6229,-31.9563],[18.5612,-31.8789],[18.4945,-31.8681],[18.4516,-31.8438],[18.3957,-31.874],[18.4119,-31.9456],[18.2903,-32.0067],[18.3139,-32.0836],[18.3103,-32.1726],[18.3422,-32.2657],[18.3142,-32.3165],[18.3345,-32.4429],[18.3988,-32.4255],[18.4585,-32.4764],[18.4928,-32.4383],[18.5913,-32.4648],[18.6427,-32.456],[18.7249,-32.5665],[18.7914,-32.5594],[18.7866,-32.5204],[18.8489,-32.5218],[18.931,-32.6068],[19.0072,-32.7162],[19.0357,-32.8489],[19.0986,-32.8791],[19.1505,-32.8721],[19.1844,-32.8271],[19.1718,-32.7368],[19.2048,-32.7111],[19.143,-32.6214],[19.1592,-32.5719],[19.2647,-32.5887],[19.3201,-32.5746],[19.3569,-32.6164],[19.419,-32.6223],[19.4756,-32.5969],[19.4868,-32.5654],[19.4964,-32.4748],[19.4302,-32.3657],[19.4091,-32.2901],[19.4915,-32.2524],[19.5014,-32.1799],[19.4752,-32.1463],[19.5152,-32.1152],[19.3958,-32.0151],[19.363,-32.0428],[19.3233,-31.9848],[19.2648,-31.9657],[19.2897,-31.863],[19.2107,-31.948],[19.1997,-31.9048],[19.1425,-31.9121],[19.0262,-31.8766]]]},"properties":{"name":"Cederberg","classification":"olifants_river"}},
{"type":"Feature","geometry":{"type":"Polygon","coordinates":[[[19.107,-33.5411],[19.1113,-33.5092],[19.0864,-33.4311],[19.084,-33.3196],[19.0678,-33.2919],[19.0577,-33.2001],[19.0824,-33.1654],[19.0724,-33.1277],[18.9801,-33.1521],[18.939,-33.1964],[18.9509,-33.2655],[18.9974,-33.3079],[18.9928,-33.3548],[18.9341,-33.4922],[18.9381,-33.546],[18.8393,-33.5776],[18.7875,-33.6376],[18.822,-33.7083],[18.7926,-33.8192],[18.8968,-33.7934],[18.8954,-33.8421],[18.9315,-33.8791],[18.982,-33.8529],[19.0942,-33.8317],[19.1646,-33.8685],[19.214,-33.8571],[19.184,-33.7154],[19.1488,-33.7022],[19.1475,-33.6561],[19.102,-33.6068],[19.107,-33.5411]]]},"properties":{"name":"Paarl","classification":"coastal"}},
{"type":"Feature","geometry":{"type":"Polygon","coordinates":[[[20.5033,-33.637],[20.5744,-33.5388],[20.5017,-33.4985],[20.498,-33.4639],[20.3362,-33.4878],[20.2415,-33.538],[20.1731,-33.5262],[20.1254,-33.5563],[19.9925,-33.5568],[19.9587,-33.5176],[19.9171,-33.5193],[19.8388,-33.5659],[19.7985,-33.5379],[19.6907,-33.5277],[19.6376,-33.5366],[19.6452,-33.6046],[19.6996,-33.6379],[19.7021,-33.7184],[19.6596,-33.7751],[19.6814,-33.7994],[19.5945,-33.8542],[19.5323,-33.8784],[19.5454,-33.9156],[19.5069,-33.9717],[19.5898,-34.0124],[19.6807,-34.0091],[19.7001,-34.0464],[19.8103,-34.0554],[20.0075,-34.0939],[20.0085,-34.0639],[20.1417,-34.0592],[20.1961,-34.04],[20.2218,-34.1111],[20.2913,-34.0913],[20.2908,-34.0419],[20.328,-33.9731],[20.2225,-33.9128],[20.2344,-33.8979],[20.3244,-33.9496],[20.436,-33.9577],[20.4683,-33.8803],[20.4353,-33.8264],[20.5145,-33.8026],[20.4479,-33.774],[20.4728,-33.7292],[20.4692,-33.682],[20.5033,-33.637]]]},"properties":{"name":"Robertson","classification":"breede_river"}},
{"type":"Feature","geometry":{"type":"Polygon","coordinates":[[[19.6242,-34.4187],[19.5904,-34.3905],[19.4951,-34.3998],[19.403,-34.3756],[19.3516,-34.3876],[19.3006,-34.3753],[19.303,-34.3286],[19.207,-34.2967],[19.1301,-34.2431],[19.0391,-34.2742],[18.9477,-34.2454],[18.9307,-34.2035],[18.8458,-34.2696],[18.8119,-34.2988],[18.8318,-34.3817],[18.9113,-34.3577],[18.9646,-34.363],[19.0471,-34.3422],[19.1026,-34.3721],[19.1412,-34.4232],[19.2185,-34.4381],[19.2754,-34.4091],[19.346,-34.4678],[19.3781,-34.5404],[19.3262,-34.6102],[19.4022,-34.6064],[19.4491,-34.6546],[19.5158,-34.6697],[19.596,-34.7467],[19.7247,-34.7672],[19.7385,-34.7129],[19.7146,-34.6878],[19.7197,-34.5998],[19.6882,-34.5622],[19.6867,-34.5165],[19.7133,-34.4686],[19.6959,-34.4322],[19.6269,-34.4169],[19.6242,-34.4187]]]},"properties":{"name":"Walker Bay","classification":"cape_south_coast"}},
{"type":"Feature","geometry":{"type":"Polygon","coordinates":[[[19.214,-33.8571],[19.1646,-33.8685],[19.0942,-33.8317],[18.982,-33.8529],[18.9315,-33.8791],[18.8954,-33.8421],[18.8968,-33.7934],[18.7926,-33.8192],[18.7529,-33.8344],[18.7108,-33.9212],[18.7444,-34.0248],[18.7902,-34.0529],[18.8418,-34.0471],[18.9553,-34.0101],[18.9871,-34.0353],[19.1261,-33.9617],[19.2066,-33.9504],[19.2438,-33.8974],[19.214,-33.8571]]]},"properties":{"name":"Stellenbosch","classification":"coastal"}},
{"type":"Feature","geometry":{"type":"Polygon","coordinates":[[[18.939,-33.1964],[18.9106,-33.1576],[18.8706,-33.1494],[18.7707,-32.9854],[18.596,-32.9007],[18.5504,-32.917],[18.5204,-32.9562],[18.5354,-33.0817],[18.4871,-33.1587],[18.5169,-33.1983],[18.4993,-33.2276],[18.4443,-33.2181],[18.3637,-33.1602],[18.3084,-33.1799],[18.2879,-33.13],[18.2444,-33.1534],[18.2384,-33.1957],[18.2033,-33.2154],[18.2266,-33.3095],[18.1562,-33.3206],[18.166,-33.3686],[18.2551,-33.4268],[18.3212,-33.5158],[18.343,-33.5706],[18.3888,-33.5089],[18.4262,-33.5112],[18.4555,-33.4713],[18.4957,-33.4811],[18.5242,-33.5252],[18.5764,-33.5315],[18.5744,-33.5735],[18.618,-33.5844],[18.627,-33.6246],[18.7367,-33.687],[18.7875,-33.6376],[18.8393,-33.5776],[18.9381,-33.546],[18.9341,-33.4922],[18.9928,-33.3548],[18.9974,-33.3079],[18.9509,-33.2655],[18.939,-33.1964]]]},"properties":{"name":"Swartland","classification":"coastal"}},
{"type":"Feature","geometry":{"type":"Polygon","coordinates":[[[20.85,-34.4034],[20.8013,-34.4082],[20.7351,-34.3877],[20.6834,-34.3467],[20.5963,-34.348],[20.6178,-34.3027],[20.5994,-34.2729],[20.6528,-34.2236],[20.665,-34.1885],[20.6401,-34.086],[20.7543,-34.0972],[20.7227,-34.0368],[20.729,-33.9884],[20.7073,-33.9551],[20.8066,-33.9464],[20.8338,-33.9713],[20.934,-33.9476],[20.9361,-33.8791],[20.9568,-33.8063],[21.0103,-33.7566],[20.9341,-33.7246],[20.8003,-33.715],[20.7189,-33.6406],[20.666,-33.622],[20.5862,-33.6672],[20.5816,-33.6221],[20.5033,-33.637],[20.4692,-33.682],[20.4728,-33.7292],[20.4479,-33.774],[20.5145,-33.8026],[20.4353,-33.8264],[20.4683,-33.8803],[20.436,-33.9577],[20.3244,-33.9496],[20.2344,-33.8979],[20.2225,-33.9128],[20.328,-33.9731],[20.2908,-34.0419],[20.2913,-34.0913],[20.2218,-34.1111],[20.1961,-34.04],[20.1417,-34.0592],[20.0085,-34.0639],[20.0075,-34.0939],[19.9657,-34.1763],[19.8804,-34.2201],[19.94,-34.2396],[20.0324,-34.2036],[20.0655,-34.2413],[20.1486,-34.2712],[20.2449,-34.2889],[20.2863,-34.3452],[20.2891,-34.4178],[20.3573,-34.3884],[20.392,-34.4263],[20.4848,-34.4013],[20.5317,-34.3605],[20.7118,-34.4126],[20.8168,-34.4289],[20.8714,-34.4524],[20.85,-34.4034]]]},"properties":{"name":"Swellendam","classification":"breede_river"}},
{"type":"Feature","geometry":{"type":"Polygon","coordinates":[[[19.5069,-33.9717],[19.4558,-33.9999],[19.3189,-33.9472],[19.2974,-33.8897],[19.2438,-33.8974],[19.2066,-33.9504],[19.1261,-33.9617],[18.9871,-34.0353],[19.0053,-34.0743],[18.9439,-34.1382],[18.9803,-34.155],[18.9307,-34.2035],[18.9477,-34.2454],[19.0391,-34.2742],[19.1301,-34.2431],[19.207,-34.2967],[19.303,-34.3286],[19.3006,-34.3753],[19.3516,-34.3876],[19.403,-34.3756],[19.4951,-34.3998],[19.5904,-34.3905],[19.6242,-34.4187],[19.6269,-34.4169],[19.6411,-34.372],[19.7052,-34.3501],[19.7409,-34.3126],[19.8454,-34.2804],[19.8804,-34.2201],[19.9657,-34.1763],[20.0075,-34.0939],[19.8103,-34.0554],[19.7001,-34.0464],[19.6807,-34.0091],[19.5898,-34.0124],[19.5069,-33.9717]]]},"properties":{"name":"Elgin","classification":"cape_south_coast"}},
{"type":"Feature","geometry":{"type":"Polygon","coordinates":[[[20.4386,-32.9401],[20.38,-32.9019],[20.2999,-32.805],[20.219,-32.7847],[20.1876,-32.7527],[20.1917,-32.6858],[20.1412,-32.6437],[20.1228,-32.557],[20.0968,-32.503],[20.0797,-32.3975],[20.132,-32.4211],[20.1705,-32.3809],[20.1635,-32.351],[20.216,-32.3032],[20.2542,-32.3108],[20.2408,-32.2242],[20.1664,-32.2275],[20.119,-32.207],[20.097,-32.2502],[20.0536,-32.2523],[20.0386,-32.2964],[19.9375,-32.3773],[19.8739,-32.3832],[19.8178,-32.3607],[19.8027,-32.3937],[19.7302,-32.4424],[19.6219,-32.4706],[19.6071,-32.5454],[19.605,-32.6295],[19.5282,-32.6732],[19.4868,-32.5654],[19.4756,-32.5969],[19.419,-32.6223],[19.3569,-32.6164],[19.3201,-32.5746],[19.2647,-32.5887],[19.1592,-32.5719],[19.143,-32.6214],[19.2048,-32.7111],[19.1718,-32.7368],[19.1844,-32.8271],[19.1861,-32.8682],[19.1537,-32.984],[19.173,-33.0919],[19.0724,-33.1277],[19.0824,-33.1654],[19.0577,-33.2001],[19.0678,-33.2919],[19.084,-33.3196],[19.0864,-33.4311],[19.1113,-33.5092],[19.107,-33.5411],[19.1694,-33.5975],[19.1854,-33.562],[19.2395,-33.5588],[19.3113,-33.6071],[19.3786,-33.6191],[19.4053,-33.4805],[19.4732,-33.4617],[19.5379,-33.4264],[19.5807,-33.3645],[19.6687,-33.3819],[19.7545,-33.3726],[19.8306,-33.3794],[19.9085,-33.3627],[19.972,-33.3168],[20.0138,-33.2388],[20.087,-33.1933],[20.2022,-33.1701],[20.2512,-33.1499],[20.3064,-33.1593],[20.3185,-33.1209],[20.3025,-33.068],[20.3343,-33.0358],[20.3838,-33.0363],[20.395,-32.9932],[20.4386,-32.9401]]]},"properties":{"name":"Tulbagh","classification":"coastal"}},
{"type":"Feature","geometry":{"type":"Polygon","coordinates":[[[18.445,-34.0478],[18.4579,-34.0114],[18.4061,-34.0098],[18.4057,-34.0473],[18.445,-34.0478]]]},"properties":{"name":"Constantia","classification":"coastal"}}
]}